ONEWEB-0132             
1 47278U 20100W   26196.88045831  .00000061  00000+0  13511-3 0  9992
2 47278  87.8963 344.9656 0001872  99.9823 260.1517 13.12440939268347
ONEWEB-0133             
1 47279U 20100X   26196.89724903 -.00000422  00000+0 -12088-2 0  9998
2 47279  87.8977 344.9418 0001820 102.0386 258.0946 13.12443362268505
ONEWEB-0134             
1 47280U 20100Y   26196.86691025  .00000416  00000+0  11218-2 0  9990
2 47280  87.8975 344.9449 0002060 102.3602 257.7757 13.12441994268471
ONEWEB-0135             
1 47281U 20100Z   26196.91433611 -.00000163  00000+0 -48948-3 0  9994
2 47281  87.8962 344.9550 0001989 104.9434 255.1915 13.12443682268509
ONEWEB-0136             
1 47282U 20100AA  26197.16169212  .00000318  00000+0  84980-3 0  9992
2 47282  87.8970 344.8894 0002121 102.6400 257.4966 13.12443384268461
ONEWEB-0137             
1 47283U 20100AB  26196.96685289 -.00000253  00000+0 -73910-3 0  9998
2 47283  87.8975 344.9390 0001797  93.3492 266.7842 13.12442593268348
ONEWEB-0138             
1 47284U 20100AC  26196.86860646  .00000374  00000+0  10055-2 0  9992
2 47284  87.8971 344.9632 0002060  98.9995 261.1367 13.12441726268413
ONEWEB-0139             
1 47285U 20100AD  26196.90940131 -.00000368  00000+0 -10587-2 0  9991
2 47285  87.8971 344.9414 0001912  96.5191 263.6155 13.12442957268496
ONEWEB-0140             
1 47286U 20100AE  26196.93975969  .00000409  00000+0  11016-2 0  9994
2 47286  87.8974 344.9261 0001766 101.5469 258.5858 13.12442621268460
ONEWEB-0141             
1 47287U 20100AF  26196.90911214 -.00000321  00000+0 -92851-3 0  9997
2 47287  87.8972 344.9374 0001865  87.2083 272.9259 13.12444060268448
ONEWEB-0142             
1 47288U 20100AG  26197.12624389 -.00000439  00000+0 -12548-2 0  9991
2 47288  87.8967 344.9143 0002194  88.4323 271.7056 13.12443235268460
ONEWEB-0143             
1 47289U 20100AH  26196.90755887 -.00000403  00000+0 -11557-2 0  9995
2 47289  87.8965 344.9571 0001848  95.5450 264.5889 13.12443778268410
ONEWEB-0144             
1 47290U 20100AJ  26196.87876819  .00000154  00000+0  39167-3 0  9991
2 47290  87.8975 344.9386 0002236  97.2476 262.8906 13.12441449268331
ONEWEB-0145             
1 47291U 20100AK  26197.15491432  .00000175  00000+0  45095-3 0  9998
2 47291  87.8961 344.9086 0001957  93.8853 266.2499 13.12443591268564
ONEWEB-0146             
1 47292U 20100AL  26196.92281412  .00000101  00000+0  24509-3 0  9994
2 47292  87.8971 344.9484 0001548 100.9088 259.2215 13.12444263268446
ONEWEB-0147             
1 47293U 20100AM  26196.96516397 -.00000299  00000+0 -86523-3 0  9996
2 47293  87.8976 344.9221 0001937 100.8690 259.2656 13.12441560268346
ONEWEB-0115             
1 48042U 21025A   26196.74231501 -.00000304  00000+0 -86878-3 0  9993
2 48042  87.8982 314.5415 0001838 101.5872 258.5464 13.13460995257345
ONEWEB-0152             
1 48043U 21025B   26196.75585240 -.00000092  00000+0 -28644-3 0  9998
2 48043  87.8989 314.5371 0001862 102.0224 258.1114 13.13473765257301
ONEWEB-0153             
1 48044U 21025C   26196.88619878 -.00000251  00000+0 -72160-3 0  9997
2 48044  87.8979 314.5115 0002016  98.5523 261.5835 13.13469452257317
ONEWEB-0154             
1 48045U 21025D   26196.88281484 -.00000171  00000+0 -50288-3 0  9994
2 48045  87.8986 314.5115 0001967 105.7182 254.4164 13.13470045257273
ONEWEB-0116             
1 48046U 21025E   26196.84557654  .00000224  00000+0  57767-3 0  9992
2 48046  87.8988 314.5162 0001842 102.8958 257.2377 13.13470250257410
ONEWEB-0150             
1 48047U 21025F   26196.82187675 -.00000282  00000+0 -80607-3 0  9998
2 48047  87.8990 314.5183 0001918  94.1188 266.0160 13.13469916257302
ONEWEB-0107             
1 48048U 21025G   26196.74739141 -.00000253  00000+0 -72659-3 0  9997
2 48048  87.8987 314.5292 0002129  97.3132 262.8239 13.13472012257277
ONEWEB-0101             
1 48049U 21025H   26196.86250602  .00000241  00000+0  62577-3 0  9994
2 48049  87.8977 314.5192 0002089 102.8949 257.2414 13.13470541257266
ONEWEB-0113             
1 48050U 21025J   26196.87764524 -.00000011  00000+0 -65017-4 0  9990
2 48050  87.8984 314.4235 0001857  95.5526 264.5815 13.13890800257376
ONEWEB-0112             
1 48051U 21025K   26196.82864781 -.00000198  00000+0 -57742-3 0  9993
2 48051  87.8987 314.5115 0002224 103.0801 257.0576 13.13469735257356
ONEWEB-0156             
1 48052U 21025L   26196.83710377  .00000007  00000+0 -15762-4 0  9991
2 48052  87.8986 314.5194 0002010  95.9923 264.1435 13.13472413257338
ONEWEB-0161             
1 48053U 21025M   26196.88791991 -.00002755  00000+0 -75842-2 0  9994
2 48053  87.8990 314.5104 0003236  74.8757 285.2730 13.13448630257276
ONEWEB-0158             
1 48054U 21025N   26196.84728089  .00000319  00000+0  83865-3 0  9996
2 48054  87.8985 314.5158 0001822 108.8413 251.2913 13.13471726257397
ONEWEB-0157             
1 48055U 21025P   26196.87265671  .00000063  00000+0  13780-3 0  9998
2 48055  87.8984 314.5156 0002302  96.4598 263.6793 13.13470791257333
