OBJECT_NAME,OBJECT_ID,EPOCH,MEAN_MOTION,ECCENTRICITY,INCLINATION,RA_OF_ASC_NODE,ARG_OF_PERICENTER,MEAN_ANOMALY,EPHEMERIS_TYPE,CLASSIFICATION_TYPE,NORAD_CAT_ID,ELEMENT_SET_NO,REV_AT_EPOCH,BSTAR,MEAN_MOTION_DOT,MEAN_MOTION_DDOT
ONEWEB-0132,2020-100W,2026-07-15T21:07:51.597984,13.12440939,.0001872,87.8963,344.9656,99.9823,260.1517,0,U,47278,999,26834,.13511E-3,.61E-6,0
ONEWEB-0133,2020-100X,2026-07-15T21:32:02.316192,13.12443362,.000182,87.8977,344.9418,102.0386,258.0946,0,U,47279,999,26850,-.12088E-2,-.422E-5,0
ONEWEB-0134,2020-100Y,2026-07-15T20:48:21.045600,13.12441994,.000206,87.8975,344.9449,102.3602,257.7757,0,U,47280,999,26847,.11218E-2,.416E-5,0
ONEWEB-0135,2020-100Z,2026-07-15T21:56:38.639904,13.12443682,.0001989,87.8962,344.9550,104.9434,255.1915,0,U,47281,999,26850,-.48948E-3,-.163E-5,0
ONEWEB-0136,2020-100AA,2026-07-16T03:52:50.199168,13.12443384,.0002121,87.8970,344.8894,102.6400,257.4966,0,U,47282,999,26846,.8498E-3,.318E-5,0
ONEWEB-0137,2020-100AB,2026-07-15T23:12:16.089696,13.12442593,.0001797,87.8975,344.9390,93.3492,266.7842,0,U,47283,999,26834,-.7391E-3,-.253E-5,0
ONEWEB-0138,2020-100AC,2026-07-15T20:50:47.598144,13.12441726,.000206,87.8971,344.9632,98.9995,261.1367,0,U,47284,999,26841,.10055E-2,.374E-5,0
ONEWEB-0139,2020-100AD,2026-07-15T21:49:32.273184,13.12442957,.0001912,87.8971,344.9414,96.5191,263.6155,0,U,47285,999,26849,-.10587E-2,-.368E-5,0
ONEWEB-0140,2020-100AE,2026-07-15T22:33:15.237216,13.12442621,.0001766,87.8974,344.9261,101.5469,258.5858,0,U,47286,999,26846,.11016E-2,.409E-5,0
ONEWEB-0141,2020-100AF,2026-07-15T21:49:07.288896,13.12444060,.0001865,87.8972,344.9374,87.2083,272.9259,0,U,47287,999,26844,-.92851E-3,-.321E-5,0
ONEWEB-0142,2020-100AG,2026-07-16T03:01:47.472096,13.12443235,.0002194,87.8967,344.9143,88.4323,271.7056,0,U,47288,999,26846,-.12548E-2,-.439E-5,0
ONEWEB-0143,2020-100AH,2026-07-15T21:46:53.086368,13.12443778,.0001848,87.8965,344.9571,95.5450,264.5889,0,U,47289,999,26841,-.11557E-2,-.403E-5,0
ONEWEB-0144,2020-100AJ,2026-07-15T21:05:25.571616,13.12441449,.0002236,87.8975,344.9386,97.2476,262.8906,0,U,47290,999,26833,.39167E-3,.154E-5,0
ONEWEB-0145,2020-100AK,2026-07-16T03:43:04.597248,13.12443591,.0001957,87.8961,344.9086,93.8853,266.2499,0,U,47291,999,26856,.45095E-3,.175E-5,0
ONEWEB-0146,2020-100AL,2026-07-15T22:08:51.139968,13.12444263,.0001548,87.8971,344.9484,100.9088,259.2215,0,U,47292,999,26844,.24509E-3,.101E-5,0
ONEWEB-0147,2020-100AM,2026-07-15T23:09:50.167008,13.12441560,.0001937,87.8976,344.9221,100.8690,259.2656,0,U,47293,999,26834,-.86523E-3,-.299E-5,0
ONEWEB-0115,2021-025A,2026-07-15T17:48:56.016864,13.13460995,.00018388,87.8982,314.5415,101.5872,258.5464,0,U,48042,999,25734,-.86877542E-3,-.304E-5,0
ONEWEB-0152,2021-025B,2026-07-15T18:08:25.647360,13.13473765,.0001862,87.8989,314.5371,102.0224,258.1114,0,U,48043,999,25730,-.2864409E-3,-.92E-6,0
ONEWEB-0153,2021-025C,2026-07-15T21:16:07.574592,13.13469452,.0002016,87.8979,314.5115,98.5523,261.5835,0,U,48044,999,25731,-.7216E-3,-.251E-5,0
ONEWEB-0154,2021-025D,2026-07-15T21:11:15.202176,13.13470045,.0001967,87.8986,314.5115,105.7182,254.4164,0,U,48045,999,25727,-.50288E-3,-.171E-5,0
ONEWEB-0116,2021-025E,2026-07-15T20:17:37.813056,13.13470250,.0001842,87.8988,314.5162,102.8958,257.2377,0,U,48046,999,25741,.57767E-3,.224E-5,0
ONEWEB-0150,2021-025F,2026-07-15T19:43:30.151200,13.13469916,.00019189,87.8990,314.5183,94.1188,266.0160,0,U,48047,999,25730,-.80607077E-3,-.282E-5,0
ONEWEB-0107,2021-025G,2026-07-15T17:56:14.617824,13.13472012,.00021297,87.8987,314.5292,97.3132,262.8239,0,U,48048,999,25727,-.72659168E-3,-.253E-5,0
ONEWEB-0101,2021-025H,2026-07-15T20:42:00.520128,13.13470541,.0002089,87.8977,314.5192,102.8949,257.2414,0,U,48049,999,25726,.62577E-3,.241E-5,0
ONEWEB-0113,2021-025J,2026-07-15T21:03:48.548736,13.13890800,.0001857,87.8984,314.4235,95.5526,264.5815,0,U,48050,999,25737,-.65017E-4,-.11E-6,0
ONEWEB-0112,2021-025K,2026-07-15T19:53:15.170784,13.13469735,.00022248,87.8987,314.5115,103.0801,257.0576,0,U,48051,999,25735,-.57741676E-3,-.198E-5,0
ONEWEB-0156,2021-025L,2026-07-15T20:05:25.765728,13.13472413,.00020102,87.8986,314.5194,95.9923,264.1435,0,U,48052,999,25733,-.15761741E-4,.7E-7,0
ONEWEB-0161,2021-025M,2026-07-15T21:18:36.280224,13.13448630,.0003236,87.8990,314.5104,74.8757,285.2730,0,U,48053,999,25727,-.75842E-2,-.2755E-4,0
ONEWEB-0158,2021-025N,2026-07-15T20:20:05.068896,13.13471726,.0001822,87.8985,314.5158,108.8413,251.2913,0,U,48054,999,25739,.83865E-3,.319E-5,0
ONEWEB-0157,2021-025P,2026-07-15T20:56:37.539744,13.13470791,.0002302,87.8984,314.5156,96.4598,263.6793,0,U,48055,999,25733,.1378E-3,.63E-6,0
